{
  "norad_id": 64330,
  "name": "STARLINK-34252",
  "history": [
    {
      "epoch": "2026-03-28T11:45:25.216416Z",
      "apogee_km": 483.79278713657914,
      "perigee_km": 482.18385324899464,
      "latitude_deg": 1.0959431157894594e-05,
      "longitude_deg": 13.450764500063087,
      "height_km": 482.88627260402654,
      "semi_major_axis_km": 6861.125320192787,
      "eccentricity": 0.00011725,
      "inclination_deg": 43.0024,
      "raan_deg": 15.7154,
      "arg_perigee_deg": 261.3344,
      "mean_anomaly_deg": 98.7375,
      "mean_motion_rev_day": 15.27600297
    },
    {
      "epoch": "2026-03-29T03:26:58.422336Z",
      "apogee_km": 484.0763290223658,
      "perigee_km": 481.746317011869,
      "latitude_deg": 1.434091604991552e-05,
      "longitude_deg": 133.72513955719728,
      "height_km": 482.5312291763292,
      "semi_major_axis_km": 6861.048323017117,
      "eccentricity": 0.0001698,
      "inclination_deg": 43.0005,
      "raan_deg": 12.0226,
      "arg_perigee_deg": 277.7497,
      "mean_anomaly_deg": 82.3162,
      "mean_motion_rev_day": 15.27626012
    },
    {
      "epoch": "2026-03-30T02:59:19.158720Z",
      "apogee_km": 484.1615580102107,
      "perigee_km": 481.78624141672935,
      "latitude_deg": -1.5868023066204794e-05,
      "longitude_deg": 134.13279010401334,
      "height_km": 482.9166285741172,
      "semi_major_axis_km": 6861.11089971347,
      "eccentricity": 0.0001731,
      "inclination_deg": 43.0008,
      "raan_deg": 6.4834,
      "arg_perigee_deg": 261.9796,
      "mean_anomaly_deg": 98.0859,
      "mean_motion_rev_day": 15.27605113
    },
    {
      "epoch": "2026-03-30T18:40:53.845536Z",
      "apogee_km": 483.5319504419831,
      "perigee_km": 482.51155891198687,
      "latitude_deg": 3.459690485575446e-05,
      "longitude_deg": -105.5991710399126,
      "height_km": 483.05937422014887,
      "semi_major_axis_km": 6861.158754676985,
      "eccentricity": 7.436e-05,
      "inclination_deg": 42.9994,
      "raan_deg": 2.7904,
      "arg_perigee_deg": 239.1405,
      "mean_anomaly_deg": 120.9374,
      "mean_motion_rev_day": 15.27589131
    },
    {
      "epoch": "2026-03-31T10:22:28.240320Z",
      "apogee_km": 483.66395234045376,
      "perigee_km": 482.4179624233948,
      "latitude_deg": -1.558238487466263e-05,
      "longitude_deg": 14.672980724326019,
      "height_km": 482.88529510660726,
      "semi_major_axis_km": 6861.177957381924,
      "eccentricity": 9.08e-05,
      "inclination_deg": 43.0031,
      "raan_deg": 359.1004,
      "arg_perigee_deg": 263.7589,
      "mean_anomaly_deg": 96.3159,
      "mean_motion_rev_day": 15.27582718
    },
    {
      "epoch": "2026-04-01T00:29:53.195712Z",
      "apogee_km": 484.03998839599535,
      "perigee_km": 482.0535384728055,
      "latitude_deg": 1.9528598897613858e-05,
      "longitude_deg": 158.91490259897918,
      "height_km": 482.6697270598854,
      "semi_major_axis_km": 6861.1837634344,
      "eccentricity": 0.00014476,
      "inclination_deg": 43.0017,
      "raan_deg": 355.7763,
      "arg_perigee_deg": 278.9181,
      "mean_anomaly_deg": 81.1507,
      "mean_motion_rev_day": 15.27580779
    }
  ]
}